LANDSAT 9               
1 49260U 21088A   23335.78515474  .00001084  00000+0  25062-3 0  9997
2 49260  98.2129  43.5184 0001126  89.8712 270.2615 14.57120241115809
